NORAD_CAT_ID,OBJECT_NAME,OBJECT_TYPE,EPOCH,MEAN_MOTION,ECCENTRICITY,INCLINATION,RA_OF_ASC_NODE,ARG_OF_PERICENTER,MEAN_ANOMALY,BSTAR,MEAN_MOTION_DOT,MEAN_MOTION_DDOT,TLE_LINE0,TLE_LINE1,TLE_LINE2,SEMIMAJOR_AXIS,PERIOD,APOGEE,PERIGEE,DECAYED
52474.0,STARLINK-3855,PAYLOAD,2022-06-15 22:00:00,15.73215893,0.0001933,53.2164,65.8141,33.735,245.0486,-0.00016227,-0.00023348,0.0,0 STARLINK-3855,1 52474U 22049Z   22166.91667824 -.00023348  00000-0 -16227-3 0  9992,2 52474  53.2164  65.8141 0001933  33.7350 245.0486 15.73215893  1304,6727.85,91.532,351.015,348.414,0.0
52474.0,STARLINK-3855,PAYLOAD,2022-06-16 02:00:01,15.73190984,0.0002036,53.2164,64.9902,31.6631,111.6138,0.00062601,0.00088132,0.0,0 STARLINK-3855,1 52474U 22049Z   22167.08334491  .00088132  00000-0  62601-3 0  9999,2 52474  53.2164  64.9902 0002036  31.6631 111.6138 15.73190984  1308,6727.920999999999,91.534,351.156,348.416,0.0
52474.0,STARLINK-3855,PAYLOAD,2022-06-19 14:00:01,15.73200032,0.0001771999999999,53.2151,47.6672,38.1388,138.9574,3.4042e-05,4.159e-05,0.0,0 STARLINK-3855,1 52474U 22049Z   22170.58334491  .00004159  00000-0  34042-4 0  9994,2 52474  53.2151  47.6672 0001772  38.1388 138.9574 15.73200032  1305,6727.895,91.533,350.952,348.5680000000001,0.0
52474.0,STARLINK-3855,PAYLOAD,2022-06-19 20:00:01,15.73188648,0.0001942,53.2155,46.4314,38.5477,115.2348,0.00018874,0.00025938,0.0,0 STARLINK-3855,1 52474U 22049Z   22170.83334491  .00025938  00000-0  18874-3 0  9994,2 52474  53.2155  46.4314 0001942  38.5477 115.2348 15.73188648  7166,6727.928000000001,91.534,351.099,348.486,0.0
52474.0,STARLINK-3855,PAYLOAD,2022-06-19 22:00:00,15.73189538,0.0002013,53.2153,46.0197,37.1533,228.8592,0.00025634,0.00035493,0.0,0 STARLINK-3855,1 52474U 22049Z   22170.91667824  .00035493  00000-0  25634-3 0  9991,2 52474  53.2153  46.0197 0002013  37.1533 228.8592 15.73189538  1308,6727.925,91.534,351.144,348.436,0.0
52474.0,STARLINK-3855,PAYLOAD,2022-06-20 12:00:00,15.7317516,0.0001803,53.2156,43.1311,35.0473,296.6090000000001,-7.703899999999999e-05,-0.00011407,0.0,0 STARLINK-3855,1 52474U 22049Z   22171.50001157 -.00011407  00000-0 -77039-4 0  9996,2 52474  53.2156  43.1311 0001803  35.0473 296.6090 15.73175160  7277,6727.965999999999,91.535,351.0440000000001,348.61800000000005,0.0
52474.0,STARLINK-3855,PAYLOAD,2022-06-20 14:00:01,15.73186879,0.0001824,53.2157,42.7185,37.3608,46.5154,-0.00031181,-0.0004413,0.0,0 STARLINK-3855,1 52474U 22049Z   22171.58334491 -.00044130  00000-0 -31181-3 0  9990,2 52474  53.2157  42.7185 0001824  37.3608  46.5154 15.73186879  1300,6727.933000000001,91.534,351.025,348.57,0.0
52474.0,STARLINK-3855,PAYLOAD,2022-06-20 22:00:00,15.73163786,0.0002062,53.2154,41.07100000000001,36.6999,136.1092,0.00025699,0.00035545,0.0,0 STARLINK-3855,1 52474U 22049Z   22171.91667824  .00035545  00000-0  25699-3 0  9991,2 52474  53.2154  41.0710 0002062  36.6999 136.1092 15.73163786  7331,6727.998000000001,91.535,351.251,348.476,0.0
52474.0,STARLINK-3855,PAYLOAD,2022-06-21 14:00:01,15.73246821,0.0001885,53.2153,37.7699,43.6594,306.9907,-0.00029334,-0.00041671,0.0,0 STARLINK-3855,1 52474U 22049Z   22172.58334491 -.00041671  00000-0 -29334-3 0  9995,2 52474  53.2153  37.7699 0001885  43.6594 306.9907 15.73246821  1304,6727.762,91.53,350.895,348.3590000000001,0.0
52474.0,STARLINK-3855,PAYLOAD,2022-06-21 22:00:00,15.73228619,0.0002076,53.2154,36.1226,40.1632,39.458,-0.00032205,-0.00045634,0.0,0 STARLINK-3855,1 52474U 22049Z   22172.91667824 -.00045634  00000-0 -32205-3 0  9995,2 52474  53.2154  36.1226 0002076  40.1632  39.4580 15.73228619  1302,6727.814,91.532,351.075,348.282,0.0
52474.0,STARLINK-3855,PAYLOAD,2022-06-22 00:00:02,15.73226393,0.0002049,53.2157,35.7105,38.2511,153.6731,-0.00038812,-0.00054804,0.0,0 STARLINK-3855,1 52474U 22049Z   22173.00002315 -.00054804  00000-0 -38812-3 0  9993,2 52474  53.2157  35.7105 0002049  38.2511 153.6731 15.73226393  7502,6727.82,91.532,351.06300000000016,348.306,0.0
52474.0,STARLINK-3855,PAYLOAD,2022-06-22 14:00:01,15.732096300000002,0.0001922,53.2158,32.8214,42.7961,214.7237,-0.00022262,-0.00031761,0.0,0 STARLINK-3855,1 52474U 22049Z   22173.58334491 -.00031761  00000-0 -22262-3 0  9998,2 52474  53.2158  32.8214 0001922  42.7961 214.7237 15.73209630  1307,6727.868,91.533,351.026,348.44,0.0
52474.0,STARLINK-3855,PAYLOAD,2022-06-22 16:00:00,15.73211998,0.0001964,53.2159,32.4095,42.9945,326.7576,-0.00033099,-0.00046843,0.0,0 STARLINK-3855,1 52474U 22049Z   22173.66667824 -.00046843  00000-0 -33099-3 0  9993,2 52474  53.2159  32.4095 0001964  42.9945 326.7576 15.73211998  7611,6727.861,91.532,351.047,348.405,0.0
52474.0,STARLINK-3855,PAYLOAD,2022-06-22 22:00:00,15.7319589,0.0002156,53.2154,31.174,39.6382,306.834,0.00027237,0.00037772,0.0,0 STARLINK-3855,1 52474U 22049Z   22173.91667824  .00037772  00000-0  27237-3 0  9997,2 52474  53.2154  31.1740 0002156  39.6382 306.8340 15.73195890  7655,6727.906999999997,91.533,351.222,348.321,0.0
52474.0,STARLINK-3855,PAYLOAD,2022-06-23 06:00:00,15.73235091,0.0001928,53.2149,29.5236,35.8369,39.5613,-0.00057811,-0.00081105,0.0,0 STARLINK-3855,1 52474U 22049Z   22174.25001157 -.00081105  00000-0 -57811-3 0  9998,2 52474  53.2149  29.5236 0001928  35.8369  39.5613 15.73235091  7706,6727.795,91.531,350.957,348.36300000000006,0.0
52474.0,STARLINK-3855,PAYLOAD,2022-06-23 14:00:01,15.73202525,0.0001656,53.2153,27.873,37.8634,126.4639,0.00019854,0.00027337,0.0,0 STARLINK-3855,1 52474U 22049Z   22174.58334491  .00027337  00000-0  19854-3 0  9994,2 52474  53.2153  27.8730 0001656  37.8634 126.4639 15.73202525  7751,6727.888000000001,91.533,350.867,348.639,0.0
52474.0,STARLINK-3855,PAYLOAD,2022-06-23 22:00:00,15.73245801,0.0001915,53.2154,26.2258,31.8559,221.3919,-0.00035256,-0.00049908,0.0,0 STARLINK-3855,1 52474U 22049Z   22174.91667824 -.00049908  00000-0 -35256-3 0  9994,2 52474  53.2154  26.2258 0001915  31.8559 221.3919 15.73245801  1303,6727.765,91.531,350.918,348.341,0.0
52474.0,STARLINK-3855,PAYLOAD,2022-06-24 06:00:02,15.73223925,0.0001806,53.2154,24.575,28.2868,313.9776,-8.077e-05,-0.00011953,0.0,0 STARLINK-3855,1 52474U 22049Z   22175.25002315 -.00011953  00000-0 -80770-4 0  9991,2 52474  53.2154  24.5750 0001806  28.2868 313.9776 15.73223925  7862,6727.8269999999975,91.532,350.907,348.477,0.0
52474.0,STARLINK-3855,PAYLOAD,2022-06-24 14:00:01,15.73204517,0.0001781999999999,53.2156,22.9246,36.2904,34.854,-0.00015689,-0.00022585,0.0,0 STARLINK-3855,1 52474U 22049Z   22175.58334491 -.00022585  00000-0 -15689-3 0  9999,2 52474  53.2156  22.9246 0001782  36.2904  34.8540 15.73204517  1306,6727.882,91.533,350.946,348.548,0.0
52474.0,STARLINK-3855,PAYLOAD,2022-06-24 22:00:01,15.7318664,0.0002016,53.2152,21.2771,31.018,129.1179,-0.00032197,-0.00045541,0.0,0 STARLINK-3855,1 52474U 22049Z   22175.91668981 -.00045541  00000-0 -32197-3 0  9990,2 52474  53.2152  21.2771 0002016  31.0180 129.1179 15.73186640  7967,6727.933000000001,91.534,351.155,348.44199999999995,0.0
52474.0,STARLINK-3855,PAYLOAD,2022-06-25 14:00:01,15.73182275,0.0001672,53.215,17.9762,32.3295,305.511,0.00035226,0.0004907,0.0,0 STARLINK-3855,1 52474U 22049Z   22176.58334491  .00049070  00000-0  35226-3 0  9995,2 52474  53.2150  17.9762 0001672  32.3295 305.5110 15.73182275  8073,6727.946,91.534,350.936,348.686,0.0
52474.0,STARLINK-3855,PAYLOAD,2022-06-25 22:00:00,15.7323356,0.0001976,53.2151,16.3286,29.7458,37.1332,-0.00033209,-0.00047038,0.0,0 STARLINK-3855,1 52474U 22049Z   22176.91667824 -.00047038  00000-0 -33209-3 0  9994,2 52474  53.2151  16.3286 0001976  29.7458  37.1332 15.73233560  8120,6727.799,91.531,350.994,348.335,0.0
52474.0,STARLINK-3855,PAYLOAD,2022-06-26 06:00:00,15.73224548,0.0001897,53.2151,14.6775,31.495,124.3433,-2.7101e-06,-1.002e-05,0.0,0 STARLINK-3855,1 52474U 22049Z   22177.25001157 -.00001002  00000-0 -27101-5 0  9990,2 52474  53.2151  14.6775 0001897  31.4950 124.3433 15.73224548  8175,6727.825,91.532,350.966,348.414,0.0
52474.0,STARLINK-3855,PAYLOAD,2022-06-26 14:00:01,15.73235745,0.000179,53.2153,13.0272,32.735,212.1334,-0.00012309,-0.00017886,0.0,0 STARLINK-3855,1 52474U 22049Z   22177.58335648 -.00017886  00000-0 -12309-3 0  9990,2 52474  53.2153  13.0272 0001790  32.7350 212.1334 15.73235745  1307,6727.793000000002,91.531,350.86300000000006,348.454,0.0
52474.0,STARLINK-3855,PAYLOAD,2022-06-26 22:00:00,15.73224344,0.0002049,53.2148,11.3797,27.8374,305.9108,-0.00029354,-0.00041661,0.0,0 STARLINK-3855,1 52474U 22049Z   22177.91667824 -.00041661  00000-0 -29354-3 0  9997,2 52474  53.2148  11.3797 0002049  27.8374 305.9108 15.73224344  1306,6727.826,91.532,351.069,348.31199999999984,0.0
52474.0,STARLINK-3855,PAYLOAD,2022-06-27 06:00:00,15.73183039,0.0001809,53.2144,9.7285,27.6476,35.0462,-0.00043899,-0.00061739,0.0,0 STARLINK-3855,1 52474U 22049Z   22178.25001157 -.00061739  00000-0 -43899-3 0  9994,2 52474  53.2144   9.7285 0001809  27.6476  35.0462 15.73183039  8338,6727.944,91.534,351.026,348.591,0.0
52474.0,STARLINK-3855,PAYLOAD,2022-06-27 14:00:01,15.73157949,0.0001717,53.2147,8.0786,29.1409,122.4279,0.00032489,0.0004513999999999,0.0,0 STARLINK-3855,1 52474U 22049Z   22178.58334491  .00045140  00000-0  32489-3 0  9999,2 52474  53.2147   8.0786 0001717  29.1409 122.4279 15.73157949  8383,6728.015,91.536,351.035,348.725,0.0
52474.0,STARLINK-3855,PAYLOAD,2022-06-27 22:00:00,15.73158142,0.0001997,53.2148,6.4311,23.5494,216.9097,0.00057067,0.00080095,0.0,0 STARLINK-3855,1 52474U 22049Z   22178.91667824  .00080095  00000-0  57067-3 0  9992,2 52474  53.2148   6.4311 0001997  23.5494 216.9097 15.73158142  1300,6728.015,91.536,351.223,348.536,0.0
52474.0,STARLINK-3855,PAYLOAD,2022-06-28 06:00:00,15.73231042,0.0001788,53.2149,4.7798,21.6022,307.7515,-0.00053357,-0.00074943,0.0,0 STARLINK-3855,1 52474U 22049Z   22179.25001157 -.00074943  00000-0 -53357-3 0  9996,2 52474  53.2149   4.7798 0001788  21.6022 307.7515 15.73231042  8497,6727.807,91.531,350.875,348.469,0.0
